STARLINK-3560           
1 51859U 22022H   25194.86039272  .00000275  00000+0  35366-4 0  9994
2 51859  53.2195   1.2771 0001246  86.0055 274.1080 15.08838631187102
STARLINK-3559           
1 51860U 22022J   25194.73430603  .00000076  00000+0  22860-4 0  9999
2 51860  53.2147   1.8321 0001534  90.2640 269.8528 15.08842619187047
STARLINK-3562           
1 51861U 22022K   25194.71958723  .00000166  00000+0  28517-4 0  9991
2 51861  53.2175   1.8986 0001249  89.5994 270.5141 15.08840117186952
STARLINK-3508           
1 51862U 22022L   25194.86310802 -.00000351  00000+0 -39538-5 0  9992
2 51862  53.2185   1.2555 0001348  88.2428 271.8719 15.08841260187112
STARLINK-3555           
1 51863U 22022M   25194.44727047  .00000163  00000+0  28324-4 0  9999
2 51863  53.2203   3.1236 0001338  93.1109 267.0037 15.08836812186993
STARLINK-3548           
1 51864U 22022N   25194.45094214 -.00000314  00000+0 -16176-5 0  9997
2 51864  53.2173   3.0270 0001347  87.4051 272.7096 15.08835756187040
STARLINK-3503           
1 51865U 22022P   25194.83735826  .00006649  00000+0  43572-3 0  9994
2 51865  53.2161   1.3704 0001481  83.7273 276.3888 15.08816536187050
STARLINK-3553           
1 51866U 22022Q   25194.90085274 -.00000014  00000+0  17224-4 0  9995
2 51866  53.2202   0.9419 0001248  89.1698 270.9437 15.08835263187066
STARLINK-3590           
1 51867U 22022R   25194.89991087  .00000087  00000+0  23553-4 0  9993
2 51867  53.2185   1.0897 0001310  89.6488 270.4654 15.08836437187061
STARLINK-3578           
1 51868U 22022S   25194.84103080 -.00000633  00000+0 -21698-4 0  9994
2 51868  53.2214   1.3569 0001428  99.5852 260.5302 15.08842430187058
STARLINK-3588           
1 51869U 22022T   25194.88887026 -.00000399  00000+0 -70000-5 0  9999
2 51869  53.2165   1.1401 0001430  92.9403 267.1752 15.08835281187068
STARLINK-3591           
1 51870U 22022U   25194.89623052  .00000032  00000+0  20098-4 0  9992
2 51870  53.2176   1.1060 0001209  88.2951 271.8180 15.08837296187114
STARLINK-3567           
1 51871U 22022V   25194.88518627  .00000112  00000+0  25124-4 0  9997
2 51871  53.2192   1.1560 0001271  86.9329 273.1809 15.08838780187102
STARLINK-3554           
1 51872U 22022W   25194.76007761 -.00000646  00000+0 -22485-4 0  9998
2 51872  53.2186   1.7190 0001369  89.4267 270.6882 15.08839294187045
STARLINK-3582           
1 51873U 22022X   25194.87510777  .00002170  00000+0  15444-3 0  9995
2 51873  53.2200   1.2110 0001418  89.4549 270.6606 15.08828702187066
STARLINK-3574           
1 51874U 22022Y   25194.48406876  .00004639  00000+0  30965-3 0  9994
2 51874  53.2177   2.9560 0001430  84.3100 275.8055 15.08806476186998
STARLINK-3585           
1 51875U 22022Z   25194.85941459  .00000520  00000+0  50726-4 0  9990
2 51875  53.2170   1.1833 0001344  90.8155 269.2992 15.08842645187066
STARLINK-3583           
1 51876U 22022AA  25194.87782497 -.00000247  00000+0  25369-5 0  9991
2 51876  53.2190   1.1879 0001142  88.8727 271.2396 15.08839822187061
STARLINK-3556           
1 51877U 22022AB  25194.72786584 -.00000430  00000+0 -89050-5 0  9999
2 51877  53.2149 351.8609 0001307  88.4712 271.6430 15.08839525187170
STARLINK-3575           
1 51878U 22022AC  25194.87046931  .00001071  00000+0  85336-4 0  9993
2 51878  53.2187   1.2224 0001298  88.6659 271.4482 15.08841703187067
STARLINK-3572           
1 51879U 22022AD  25194.72051066 -.00000926  00000+0 -40076-4 0  9995
2 51879  53.2181 351.8957 0001392  93.4589 266.6562 15.08841467187174
STARLINK-3566           
1 51880U 22022AE  25194.87411586 -.00001004  00000+0 -44986-4 0  9992
2 51880  53.2171   0.9245 0001319  90.2720 269.8423 15.08835634187066
STARLINK-3504           
1 51881U 22022AF  25194.71314806  .00000400  00000+0  43236-4 0  9997
2 51881  53.2171 351.9279 0001311  86.3757 273.7385 15.08838410187225
STARLINK-3570           
1 51882U 22022AG  25194.46018587 -.00000389  00000+0 -63309-5 0  9999
2 51882  53.2180 353.0752 0001396  87.4950 272.6202 15.08837206187188
STARLINK-3576           
1 51883U 22022AH  25194.72421368  .00000230  00000+0  32504-4 0  9999
2 51883  53.2164 352.0605 0001298  86.4837 273.6304 15.08846746187162
STARLINK-3577           
1 51884U 22022AJ  25194.84930875  .00001689  00000+0  12413-3 0  9996
2 51884  53.2188 351.3171 0001412  95.4799 264.6354 15.08847057187277
STARLINK-3584           
1 51885U 22022AK  25194.83458787 -.00000116  00000+0  10802-4 0  9999
2 51885  53.2186 351.3829 0001236  85.0252 275.0881 15.08839760187182
STARLINK-3565           
1 51886U 22022AL  25194.84194821 -.00000497  00000+0 -13135-4 0  9992
2 51886  53.2192 351.3500 0001505  89.7162 270.4002 15.08839928187197
STARLINK-3551           
1 51887U 22022AM  25194.83090618  .00000423  00000+0  44659-4 0  9993
2 51887  53.2177 351.3981 0001319  88.0836 272.0307 15.08844108187188
STARLINK-3536           
1 51888U 22022AN  25194.83824595  .00002271  00000+0  16059-3 0  9998
2 51888  53.2222 351.3667 0000260  75.0394 285.0627 15.08873089187190
STARLINK-3547           
1 51889U 22022AP  25194.81987170 -.00000307  00000+0 -11836-5 0  9996
2 51889  53.2184 351.4480 0001335  88.3201 271.7944 15.08835684187182
STARLINK-3549           
1 51891U 22022AR  25194.81619231 -.00001140  00000+0 -53576-4 0  9991
2 51891  53.2189 351.4674 0001234  85.2400 274.8733 15.08836146187230
STARLINK-3587           
1 51892U 22022AS  25194.82354878 -.00000007  00000+0  17629-4 0  9995
2 51892  53.2175 351.4323 0001454  86.3071 273.8087 15.08841144187186
STARLINK-3579           
1 51893U 22022AT  25194.80883899  .00001802  00000+0  13130-3 0  9999
2 51893  53.2189 351.5002 0001139  81.7151 278.3970 15.08831015187249
STARLINK-3595           
1 51894U 22022AU  25194.87874845 -.00000042  00000+0  15473-4 0  9997
2 51894  53.2165 351.1844 0001336  90.8372 269.2773 15.08837938187250
STARLINK-3594           
1 51895U 22022AV  25194.73891413 -.00000730  00000+0 -27793-4 0  9996
2 51895  53.2221 351.8150 0001614  95.2455 264.8721 15.08833280187172
STARLINK-3593           
1 51896U 22022AW  25194.82725669 -.00000100  00000+0  11822-4 0  9992
2 51896  53.2175 351.6365 0001373  84.8570 275.2579 15.08838523187230
STARLINK-3598           
1 51897U 22022AX  25194.80146886 -.00000772  00000+0 -30407-4 0  9995
2 51897  53.2192 351.5333 0001056  94.4233 265.6880 15.08832662187185
STARLINK-3597           
1 51898U 22022AY  25194.86402930 -.00000346  00000+0 -36698-5 0  9993
2 51898  53.2186 351.2516 0001416  92.8567 267.2587 15.08837529187247
STARLINK-3700           
1 51956U 22025A   25194.94222285 -.00000599  00000+0 -21315-4 0  9992
2 51956  53.0549  13.4004 0001492  91.4455 268.6705 15.06394918185060
STARLINK-3694           
1 51957U 22025B   25194.82096998 -.00000444  00000+0 -10941-4 0  9992
2 51957  53.0560  28.1926 0001240  85.4067 274.7063 15.06385316184845
STARLINK-3692           
1 51958U 22025C   25194.87218554  .00000020  00000+0  20229-4 0  9990
2 51958  53.0556  13.7195 0001417  90.4518 269.6633 15.06397664185051
STARLINK-3704           
1 51959U 22025D   25194.82463022  .00000244  00000+0  35300-4 0  9992
2 51959  53.0547  28.1483 0001406  91.5696 268.5454 15.06399594184848
STARLINK-3691           
1 51960U 22025E   25194.81726476 -.00000479  00000+0 -13285-4 0  9998
2 51960  53.0551  28.1856 0001332  90.5633 269.5509 15.06393172184845
STARLINK-3697           
1 51962U 22025G   25194.91777410 -.00000234  00000+0  32088-5 0  9996
2 51962  53.0566  18.3152 0001403  86.9458 273.1691 15.06396902184999
STARLINK-3675           
1 51963U 22025H   25194.79477396 -.00000003  00000+0  18726-4 0  9999
2 51963  53.0569  14.0071 0001492  91.6303 268.4856 15.06396525185044
STARLINK-3690           
1 51964U 22025J   25194.89667654  .00001228  00000+0  10133-3 0  9991
2 51964  53.0563  18.9980 0001382  99.9137 260.2008 15.06392309184982
STARLINK-3696           
1 51965U 22025K   25194.94626548 -.00002719  00000+0 -16370-3 0  9992
2 51965  53.0557  27.6023 0001526 100.9617 259.1544 15.06402912184868
STARLINK-3699           
1 51966U 22025L   25194.78639313 -.00003361  00000+0 -20678-3 0  9999
2 51966  53.0569  23.3068 0001395  89.1437 270.9712 15.06412167184913
STARLINK-3681           
1 51968U 22025N   25194.94458985 -.00000867  00000+0 -39335-4 0  9992
2 51968  53.0566  18.6944 0001589  87.2700 272.8471 15.06398735184994
STARLINK-3680           
1 51969U 22025P   25194.91882312 -.00000755  00000+0 -31820-4 0  9992
2 51969  53.0558  19.1119 0001486  93.6953 266.4206 15.06394806184971
STARLINK-3677           
1 51970U 22025Q   25194.78271131 -.00000050  00000+0  15552-4 0  9991
2 51970  53.0554  23.3988 0001411  91.7153 268.3998 15.06398566184919
STARLINK-3669           
1 51971U 22025R   25194.88191831 -.00000244  00000+0  25323-5 0  9994
2 51971  53.0564  18.9264 0001389  89.3937 270.7211 15.06392798184988
STARLINK-3671           
1 51972U 22025S   25194.90434393  .00000054  00000+0  22508-4 0  9990
2 51972  53.0570  22.8319 0001355  88.3703 271.7441 15.06399991184937
STARLINK-3679           
1 51973U 22025T   25194.91171001 -.00003013  00000+0 -18341-3 0  9995
2 51973  53.0583  22.7432 0001988  99.6551 260.4663 15.06400152184938
STARLINK-3672           
1 51974U 22025U   25194.90066961 -.00003414  00000+0 -21038-3 0  9995
2 51974  53.0568  22.8488 0002067  85.1722 274.9503 15.06396727184927
STARLINK-3674           
1 51975U 22025V   25194.88460984  .00000699  00000+0  65796-4 0  9996
2 51975  53.0570  18.5164 0001437  81.0065 279.1086 15.06408417186104
STARLINK-3663           
1 51976U 22025W   25194.72881408  .00049560  00000+0  76482-3 0  9991
2 51976  53.2126 354.2655 0003953 116.7578 243.3839 15.53666364185522
STARLINK-3660           
1 51977U 22025X   25194.88890264  .00000209  00000+0  31230-4 0  9999
2 51977  53.2192  11.1491 0001378  88.1992 271.9158 15.08845145185284
